NORAD_CAT_ID,OBJECT_NAME,OBJECT_TYPE,EPOCH,MEAN_MOTION,ECCENTRICITY,INCLINATION,RA_OF_ASC_NODE,ARG_OF_PERICENTER,MEAN_ANOMALY,BSTAR,MEAN_MOTION_DOT,MEAN_MOTION_DDOT,TLE_LINE0,TLE_LINE1,TLE_LINE2,SEMIMAJOR_AXIS,PERIOD,APOGEE,PERIGEE,DECAYED
53177.0,STARLINK-4298,PAYLOAD,2022-12-12 11:28:56,15.08831634,0.0001518,53.2184,50.7597,94.1953,265.9213,0.00011374,1.522e-05,0.0,0 STARLINK-4298,1 53177U 22083AX  22346.47843248  .00001522  00000-0  11374-3 0  9994,2 53177  53.2184  50.7597 0001518  94.1953 265.9213 15.08831634 23076,6917.906,95.438,540.821,538.721,0.0
53177.0,STARLINK-4298,PAYLOAD,2022-12-12 21:01:16,15.08827587,0.0001425,53.2175,48.9759,82.9899,277.1255,2.798e-05,1.57e-06,0.0,0 STARLINK-4298,1 53177U 22083AX  22346.87588028  .00000157  00000-0  27980-4 0  9994,2 53177  53.2175  48.9759 0001425  82.9899 277.1255 15.08827587 23776,6917.918000000002,95.438,540.769,538.798,0.0
53177.0,STARLINK-4298,PAYLOAD,2022-12-13 08:08:57,15.08844835,0.0001428,53.2173,46.8928,99.5279,260.5874,-0.000138,-2.484e-05,0.0,0 STARLINK-4298,1 53177U 22083AX  22347.33955658 -.00002484  00000-0 -13800-3 0  9995,2 53177  53.2173  46.8928 0001428  99.5279 260.5874 15.08844835 23844,6917.866,95.437,540.7180000000002,538.743,0.0
53177.0,STARLINK-4298,PAYLOAD,2022-12-13 11:19:43,15.08841708,0.0001374,53.2172,46.2995,80.7044,279.4104,-7.956699999999999e-05,-1.554e-05,0.0,0 STARLINK-4298,1 53177U 22083AX  22347.47203634 -.00001554  00000-0 -79567-4 0  9990,2 53177  53.2172  46.2995 0001374  80.7044 279.4104 15.08841708 23226,6917.875,95.437,540.691,538.79,0.0
53177.0,STARLINK-4298,PAYLOAD,2022-12-14 12:45:53,15.08840848,0.0001333,53.2164,41.5419,68.63,291.4834,4.4728e-05,4.24e-06,0.0,0 STARLINK-4298,1 53177U 22083AX  22348.53187072  .00000424  00000-0  44728-4 0  9999,2 53177  53.2164  41.5419 0001333  68.6300 291.4834 15.08840848 23386,6917.878000000002,95.438,540.665,538.821,0.0
53177.0,STARLINK-4298,PAYLOAD,2022-12-14 20:42:49,15.08833124,0.0001449,53.2171,40.0537,70.7271,289.3878,1.1154000000000002e-06,-2.7000000000000004e-06,0.0,0 STARLINK-4298,1 53177U 22083AX  22348.86307698 -.00000270  00000-0  11154-5 0  9991,2 53177  53.2171  40.0537 0001449  70.7271 289.3878 15.08833124 23437,6917.901,95.438,540.769,538.764,0.0
53177.0,STARLINK-4298,PAYLOAD,2022-12-15 12:36:40,15.08844039,0.000133,53.2166,37.0818,67.122,292.9913,8.142800000000001e-05,1.008e-05,0.0,0 STARLINK-4298,1 53177U 22083AX  22349.52546732  .00001008  00000-0  81428-4 0  9998,2 53177  53.2166  37.0818 0001330  67.1220 292.9913 15.08844039 23530,6917.868,95.437,540.653,538.813,0.0
53177.0,STARLINK-4298,PAYLOAD,2022-12-15 20:33:36,15.08838484,0.000155,53.2166,35.595,65.6031,294.5123,-1.9599e-06,-3.19e-06,0.0,0 STARLINK-4298,1 53177U 22083AX  22349.85667414 -.00000319  00000-0 -19599-5 0  9992,2 53177  53.2166  35.5950 0001550  65.6031 294.5123 15.08838484 23580,6917.885,95.438,540.822,538.678,0.0
53177.0,STARLINK-4298,PAYLOAD,2022-12-16 02:55:09,15.08835816,0.0001945,53.2147,34.404,70.7821,289.3381,-5.7857e-05,-1.209e-05,0.0,0 STARLINK-4298,1 53177U 22083AX  22350.12163985 -.00001209  00000-0 -57857-4 0  9995,2 53177  53.2147  34.4040 0001945  70.7821 289.3381 15.08835816 24269,6917.893,95.438,541.104,538.413,0.0
53177.0,STARLINK-4298,PAYLOAD,2022-12-16 12:27:28,15.08832782,0.0001463,53.2157,32.6206,69.4352,290.6797,-6.7995e-05,-1.3699999999999998e-05,0.0,0 STARLINK-4298,1 53177U 22083AX  22350.51908220 -.00001370  00000-0 -67995-4 0  9990,2 53177  53.2157  32.6206 0001463  69.4352 290.6797 15.08832782 23683,6917.901999999999,95.438,540.78,538.755,0.0
53177.0,STARLINK-4298,PAYLOAD,2022-12-16 15:38:15,15.0883327,0.0001437,53.2153,32.0263,67.3088,292.8056,-7.9985e-05,-1.56e-05,0.0,0 STARLINK-4298,1 53177U 22083AX  22350.65156267 -.00001560  00000-0 -79985-4 0  9994,2 53177  53.2153  32.0263 0001437  67.3088 292.8056 15.08833270 23708,6917.901,95.438,540.76,538.7719999999998,0.0
53177.0,STARLINK-4298,PAYLOAD,2022-12-17 09:07:28,15.08842482,0.0001561999999999,53.2169,28.7556,68.6247,291.4912,-1.6147e-05,-5.45e-06,0.0,0 STARLINK-4298,1 53177U 22083AX  22351.38019382 -.00000545  00000-0 -16147-4 0  9994,2 53177  53.2169  28.7556 0001562  68.6247 291.4912 15.08842482 23815,6917.873000000001,95.437,540.818,538.6569999999998,0.0
53177.0,STARLINK-4298,PAYLOAD,2022-12-17 20:15:11,15.08831221,0.0001604,53.2173,26.6736,66.0173,294.0987,-3.9391e-05,-9.15e-06,0.0,0 STARLINK-4298,1 53177U 22083AX  22351.84388193 -.00000915  00000-0 -39391-4 0  9991,2 53177  53.2173  26.6736 0001604  66.0173 294.0987 15.08831221 23881,6917.906999999997,95.438,540.882,538.663,0.0
53177.0,STARLINK-4298,PAYLOAD,2022-12-18 02:36:44,15.08818093,0.0001717,53.2172,25.4841,70.3779,289.7398,9.968e-05,1.298e-05,0.0,0 STARLINK-4298,1 53177U 22083AX  22352.10884692  .00001298  00000-0  99680-4 0  9996,2 53177  53.2172  25.4841 0001717  70.3779 289.7398 15.08818093 24564,6917.946999999999,95.439,541.0,538.625,0.0
53177.0,STARLINK-4298,PAYLOAD,2022-12-18 08:58:17,15.08802306,0.0001399,53.2172,24.2946,69.4273,290.6869,0.00025431,3.758e-05,0.0,0 STARLINK-4298,1 53177U 22083AX  22352.37381525  .00003758  00000-0  25431-3 0  9997,2 53177  53.2172  24.2946 0001399  69.4273 290.6869 15.08802306 24600,6917.996,95.44,540.828,538.893,0.0
53177.0,STARLINK-4298,PAYLOAD,2022-12-18 12:09:03,15.08826723,0.000151,53.2174,23.7,64.5441,295.5707,-4.2896e-05,-9.7e-06,0.0,0 STARLINK-4298,1 53177U 22083AX  22352.50628963 -.00000970  00000-0 -42896-4 0  9992,2 53177  53.2174  23.7000 0001510  64.5441 295.5707 15.08826723 24621,6917.920999999999,95.438,540.831,538.741,0.0
53177.0,STARLINK-4298,PAYLOAD,2022-12-19 02:27:31,15.08836786,0.0001489,53.2167,21.0233,61.4992,298.615,-3.2743e-05,-8.09e-06,0.0,0 STARLINK-4298,1 53177U 22083AX  22353.10244478 -.00000809  00000-0 -32743-4 0  9995,2 53177  53.2167  21.0233 0001489  61.4992 298.6150 15.08836786 24710,6917.89,95.438,540.785,538.725,0.0
53177.0,STARLINK-4298,PAYLOAD,2022-12-19 08:49:02,15.08848336,0.0001512,53.2168,19.8338,61.6181,298.4963,8.296e-05,1.033e-05,0.0,0 STARLINK-4298,1 53177U 22083AX  22353.36739345  .00001033  00000-0  82960-4 0  9999,2 53177  53.2168  19.8338 0001512  61.6181 298.4963 15.08848336 24759,6917.855,95.437,540.766,538.674,0.0
53177.0,STARLINK-4298,PAYLOAD,2022-12-19 18:21:21,15.08844413,0.0001561999999999,53.217,18.05,62.2431,297.872,4.1867e-05,3.78e-06,0.0,0 STARLINK-4298,1 53177U 22083AX  22353.76483596  .00000378  00000-0  41867-4 0  9999,2 53177  53.2170  18.0500 0001562  62.2431 297.8720 15.08844413 24176,6917.8669999999975,95.437,540.812,538.651,0.0
53177.0,STARLINK-4298,PAYLOAD,2022-12-20 10:15:12,15.08844761,0.0001539,53.2172,15.0766,61.2401,298.8745,0.00015682,2.209e-05,0.0,0 STARLINK-4298,1 53177U 22083AX  22354.42722859  .00002209  00000-0  15682-3 0  9991,2 53177  53.2172  15.0766 0001539  61.2401 298.8745 15.08844761 24274,6917.866,95.437,540.795,538.6659999999998,0.0
53177.0,STARLINK-4298,PAYLOAD,2022-12-20 18:12:08,15.08836192,0.0001622,53.2162,13.5898,59.9147,300.2005,4.3535e-05,4.05e-06,0.0,0 STARLINK-4298,1 53177U 22083AX  22354.75843715  .00000405  00000-0  43535-4 0  9997,2 53177  53.2162  13.5898 0001622  59.9147 300.2005 15.08836192 24968,6917.892,95.438,540.879,538.635,0.0
53177.0,STARLINK-4298,PAYLOAD,2022-12-21 10:06:01,15.0882889,0.0001389,53.2172,10.6154,64.7571,295.3565,-0.00017605,-3.088e-05,0.0,0 STARLINK-4298,1 53177U 22083AX  22355.42084998 -.00003088  00000-0 -17605-3 0  9992,2 53177  53.2172  10.6154 0001389  64.7571 295.3565 15.08828890 25060,6917.9140000000025,95.438,540.74,538.818,0.0
53177.0,STARLINK-4298,PAYLOAD,2022-12-21 11:41:24,15.0882809,0.0001401,53.2172,10.3181,72.8911,287.2234,-0.00018335,-3.204e-05,0.0,0 STARLINK-4298,1 53177U 22083AX  22355.48709092 -.00003204  00000-0 -18335-3 0  9998,2 53177  53.2172  10.3181 0001401  72.8911 287.2234 15.08828090 24435,6917.917,95.438,540.751,538.813,0.0
53177.0,STARLINK-4298,PAYLOAD,2022-12-22 09:56:47,15.08845045,0.0001578,53.2174,6.1558,62.5312,297.5841,-3.7907e-05,-8.91e-06,0.0,0 STARLINK-4298,1 53177U 22083AX  22356.41443706 -.00000891  00000-0 -37907-4 0  9995,2 53177  53.2174   6.1558 0001578  62.5312 297.5841 15.08845045 25218,6917.865,95.437,540.822,538.638,0.0
53177.0,STARLINK-4298,PAYLOAD,2022-12-22 17:53:43,15.08839239,0.0001679,53.2173,4.667,60.0012,300.1147,-4.5278e-05,-1.009e-05,0.0,0 STARLINK-4298,1 53177U 22083AX  22356.74564124 -.00001009  00000-0 -45278-4 0  9991,2 53177  53.2173   4.6670 0001679  60.0012 300.1147 15.08839239 25260,6917.8830000000025,95.438,540.909,538.586,0.0
53177.0,STARLINK-4298,PAYLOAD,2022-12-23 09:47:35,15.0882143,0.0001377,53.2175,1.6941,59.1323,300.9805,7.5812e-05,9.18e-06,0.0,0 STARLINK-4298,1 53177U 22083AX  22357.40805073  .00000918  00000-0  75812-4 0  9999,2 53177  53.2175   1.6941 0001377  59.1323 300.9805 15.08821430 25363,6917.937,95.439,540.755,538.85,0.0
53177.0,STARLINK-4298,PAYLOAD,2022-12-23 12:58:21,15.088224,0.0001418,53.2182,1.1003,59.7186,300.3947,8.1858e-05,1.014e-05,0.0,0 STARLINK-4298,1 53177U 22083AX  22357.54053144  .00001014  00000-0  81858-4 0  9993,2 53177  53.2182   1.1003 0001418  59.7186 300.3947 15.08822400 24744,6917.934,95.439,540.78,538.818,0.0
53177.0,STARLINK-4298,PAYLOAD,2022-12-24 00:06:03,15.08833707,0.0001652,53.2196,359.0179,56.2,303.9149,4.5737e-05,4.4e-06,0.0,0 STARLINK-4298,1 53177U 22083AX  22358.00420874  .00000440  00000-0  45737-4 0  9991,2 53177  53.2196 359.0179 0001652  56.2000 303.9149 15.08833707 25459,6917.9,95.438,540.9069999999998,538.622,0.0
53177.0,STARLINK-4298,PAYLOAD,2022-12-24 17:35:17,15.08843992,0.0001492,53.2163,355.7497,55.8778,304.2355,4.120000000000001e-05,3.68e-06,0.0,0 STARLINK-4298,1 53177U 22083AX  22358.73284027  .00000368  00000-0  41200-4 0  9999,2 53177  53.2163 355.7497 0001492  55.8778 304.2355 15.08843992 25560,6917.868,95.437,540.765,538.701,0.0
